{
  "type": "FeatureCollection",
  "features": [
    {
      "type": "Feature",
      "geometry": {
        "type": "Polygon",
        "coordinates": [
          [
            [
              31.061705347237513,
              -17.400201782109484
            ],
            [
              31.060632254058397,
              -17.401676481200518
            ],
            [
              31.063078906506792,
              -17.403274058458194
            ],
            [
              31.064409542048907,
              -17.40155359006393
            ],
            [
              31.061705347237513,
              -17.400201782109484
            ]
          ]
        ]
      },
      "properties": {
        "id": 155,
        "field_name": "Field a",
        "crop": "Potatoes",
        "production_system": "Irrigated",
        "area_ha": 6.95,
        "province": "Mashonaland Central",
        "district": "Mazowe",
        "created_at": "2026-09-29 20:10",
        "color": "#8e44ad"
      }
    },
    {
      "type": "Feature",
      "geometry": {
        "type": "Polygon",
        "coordinates": [
          [
            [
              31.024837055306477,
              -17.384284792438756
            ],
            [
              31.0240858900811,
              -17.385677685319582
            ],
            [
              31.024450741762006,
              -17.387664587697564
            ],
            [
              31.026339385757243,
              -17.38895503850957
            ],
            [
              31.02850703397908,
              -17.38899600505296
            ],
            [
              31.03009521188415,
              -17.387132018042607
            ],
            [
              31.03007375002058,
              -17.384530597835187
            ],
            [
              31.027605635708618,
              -17.38307624443774
            ],
            [
              31.026339385757243,
              -17.38324011582084
            ],
            [
              31.024837055306477,
              -17.384284792438756
            ]
          ]
        ]
      },
      "properties": {
        "id": 162,
        "field_name": "Mash cental farm",
        "crop": "Beans",
        "production_system": "Rainfed",
        "area_ha": 32.45,
        "province": "Mashonaland Central",
        "district": "Mazowe",
        "created_at": "2026-09-29 20:38",
        "color": "#27ae60"
      }
    },
    {
      "type": "Feature",
      "geometry": {
        "type": "Polygon",
        "coordinates": [
          [
            [
              31.0499871697215,
              -17.396883665664845
            ],
            [
              31.04942916126838,
              -17.39958732064418
            ],
            [
              31.050201788357324,
              -17.40155359006393
            ],
            [
              31.05286305944155,
              -17.402209008504364
            ],
            [
              31.055052169526952,
              -17.401307807542974
            ],
            [
              31.055653101707247,
              -17.398440320383788
            ],
            [
              31.05380738143919,
              -17.396146298278108
            ],
            [
              31.052004584898256,
              -17.396146298278108
            ],
            [
              31.0499871697215,
              -17.396883665664845
            ]
          ]
        ]
      },
      "properties": {
        "id": 156,
        "field_name": "Field b",
        "crop": "Tobacco",
        "production_system": "Irrigated",
        "area_ha": 34.45,
        "province": "Mashonaland Central",
        "district": "Mazowe",
        "created_at": "2026-09-29 20:11",
        "color": "#e74c3c"
      }
    },
    {
      "type": "Feature",
      "geometry": {
        "type": "Polygon",
        "coordinates": [
          [
            [
              31.049846821718443,
              -17.402758501146504
            ],
            [
              31.048816652266495,
              -17.404478958200375
            ],
            [
              31.048644957357848,
              -17.406609025449477
            ],
            [
              31.050876991170384,
              -17.408247521824663
            ],
            [
              31.053280719891614,
              -17.408165597354827
            ],
            [
              31.054568431706596,
              -17.40628132441159
            ],
            [
              31.054740126615243,
              -17.403659694956225
            ],
            [
              31.05225055043967,
              -17.402348866127948
            ],
            [
              31.049846821718443,
              -17.402758501146504
            ]
          ]
        ]
      },
      "properties": {
        "id": 152,
        "field_name": "Pivot 1",
        "crop": "Millet",
        "production_system": "Irrigated",
        "area_ha": 33.25,
        "province": "Mashonaland Central",
        "district": "Guruve",
        "created_at": "2026-09-29 19:46",
        "color": "#f1c40f"
      }
    },
    {
      "type": "Feature",
      "geometry": {
        "type": "Polygon",
        "coordinates": [
          [
            [
              30.18245175067888,
              -19.02240620105469
            ],
            [
              30.183696538766643,
              -19.02747914786249
            ],
            [
              30.187259208121333,
              -19.02894012781632
            ],
            [
              30.1906931062945,
              -19.02772264541369
            ],
            [
              30.19180912320079,
              -19.023988977080997
            ],
            [
              30.18966293684256,
              -19.02070165616788
            ],
            [
              30.186915818303994,
              -19.020295809570484
            ],
            [
              30.184340394674113,
              -19.02122925526287
            ],
            [
              30.18245175067888,
              -19.02240620105469
            ]
          ]
        ]
      },
      "properties": {
        "id": 161,
        "field_name": "Kwekwe farm",
        "crop": "Tomatoes",
        "production_system": "Irrigated",
        "area_ha": 68.59,
        "province": "Midlands",
        "district": "Kwekwe",
        "created_at": "2026-09-29 20:36",
        "color": "#e74c3c"
      }
    },
    {
      "type": "Feature",
      "geometry": {
        "type": "Polygon",
        "coordinates": [
          [
            [
              30.19284623371594,
              -19.012784429200273
            ],
            [
              30.19125805581083,
              -19.015625462942918
            ],
            [
              30.191472674446654,
              -19.018872299200765
            ],
            [
              30.19357593707775,
              -19.021063877823302
            ],
            [
              30.19592871961111,
              -19.02196201976965
            ],
            [
              30.199276770329934,
              -19.0213532541185
            ],
            [
              30.20176634650551,
              -19.018836999104835
            ],
            [
              30.201938041414163,
              -19.01522488903261
            ],
            [
              30.199276770329934,
              -19.0120185682764
            ],
            [
              30.196229185701238,
              -19.011328592434857
            ],
            [
              30.19284623371594,
              -19.012784429200273
            ]
          ]
        ]
      },
      "properties": {
        "id": 160,
        "field_name": "Kwekwe farm",
        "crop": "Potatoes",
        "production_system": "Irrigated",
        "area_ha": 101.13,
        "province": "Midlands",
        "district": "Kwekwe",
        "created_at": "2026-09-29 20:34",
        "color": "#8e44ad"
      }
    }
  ]
}